[{"OBJECT_NAME":"STARLINK-32224","OBJECT_ID":"2024-155T","EPOCH":"2026-03-09T10:49:51.147552","MEAN_MOTION":15.30191785,"ECCENTRICITY":0.00011615,"INCLINATION":53.16,"RA_OF_ASC_NODE":130.8257,"ARG_OF_PERICENTER":71.2422,"MEAN_ANOMALY":288.8705,"EPHEMERIS_TYPE":0,"CLASSIFICATION_TYPE":"U","NORAD_CAT_ID":60941,"ELEMENT_SET_NO":999,"REV_AT_EPOCH":8631,"BSTAR":9.2169991e-5,"MEAN_MOTION_DOT":2.371e-5,"MEAN_MOTION_DDOT":0},{"OBJECT_NAME":"SL-3 R\/B","OBJECT_ID":"1981-065B","EPOCH":"2026-03-09T21:58:16.284000","MEAN_MOTION":15.33300883,"ECCENTRICITY":0.00117648,"INCLINATION":97.6337,"RA_OF_ASC_NODE":111.1786,"ARG_OF_PERICENTER":10.529,"MEAN_ANOMALY":349.6196,"EPHEMERIS_TYPE":0,"CLASSIFICATION_TYPE":"U","NORAD_CAT_ID":12586,"ELEMENT_SET_NO":999,"REV_AT_EPOCH":43499,"BSTAR":0.00030084921,"MEAN_MOTION_DOT":9.62e-5,"MEAN_MOTION_DDOT":0}]
